NORAD_CAT_ID,OBJECT_NAME,OBJECT_TYPE,EPOCH,MEAN_MOTION,ECCENTRICITY,INCLINATION,RA_OF_ASC_NODE,ARG_OF_PERICENTER,MEAN_ANOMALY,BSTAR,MEAN_MOTION_DOT,MEAN_MOTION_DDOT,TLE_LINE0,TLE_LINE1,TLE_LINE2,SEMIMAJOR_AXIS,PERIOD,APOGEE,PERIGEE,DECAYED
56487.0,STARLINK-6196,PAYLOAD,2023-09-21 15:30:14,15.69927768,0.0003369,70.0,228.7601,268.5916,91.4893,4.4066e-06,3.17e-06,0.0,0 STARLINK-6196,1 56487U 23064AR  23264.64600447  .00000317  00000-0  44066-5 0  9999,2 56487  70.0000 228.7601 0003369 268.5916  91.4893 15.69927768 21392,6737.241,91.724,361.375,356.836,0.0
56487.0,STARLINK-6196,PAYLOAD,2023-09-22 06:47:46,15.69930033,0.0002693,70.001,226.9692,271.378,88.7107,2.042e-05,2.244e-05,0.0,0 STARLINK-6196,1 56487U 23064AR  23265.28317300  .00002244  00000-0  20420-4 0  9991,2 56487  70.0010 226.9692 0002693 271.3780  88.7107 15.69930033 21142,6737.234,91.724,360.914,357.285,0.0
56487.0,STARLINK-6196,PAYLOAD,2023-09-22 22:05:18,15.6991532,0.0002584,70.0027,225.1783,267.1559,92.934,1.2941e-05,1.343e-05,0.0,0 STARLINK-6196,1 56487U 23064AR  23265.92035152  .00001343  00000-0  12941-4 0  9992,2 56487  70.0027 225.1783 0002584 267.1559  92.9340 15.69915320 21247,6737.276,91.725,360.882,357.4,0.0
56487.0,STARLINK-6196,PAYLOAD,2023-09-22 23:37:03,15.69926079,0.0002751,70.0015,224.9985,258.9995,101.0891,-1.1172e-05,-1.555e-05,0.0,0 STARLINK-6196,1 56487U 23064AR  23265.98406469 -.00001555  00000-0 -11172-4 0  9993,2 56487  70.0015 224.9985 0002751 258.9995 101.0891 15.69926079 21609,6737.245,91.724,360.964,357.257,0.0
56487.0,STARLINK-6196,PAYLOAD,2023-09-23 07:15:48,15.69932685,0.0002836,70.0001,224.1036,255.1387,104.9494,-2.6466e-05,-3.394e-05,0.0,0 STARLINK-6196,1 56487U 23064AR  23266.30264368 -.00003394  00000-0 -26466-4 0  9995,2 56487  70.0001 224.1036 0002836 255.1387 104.9494 15.69932685 21309,6737.227,91.724,361.002,357.181,0.0
56487.0,STARLINK-6196,PAYLOAD,2023-09-24 06:12:05,15.69926484,0.0003711,69.9986,221.4182,262.2159,97.8615,1.861e-06,1.1e-07,0.0,0 STARLINK-6196,1 56487U 23064AR  23267.25839160  .00000011  00000-0  18610-5 0  9992,2 56487  69.9986 221.4182 0003711 262.2159  97.8615 15.69926484 21450,6737.244,91.724,361.61,356.609,0.0
56487.0,STARLINK-6196,PAYLOAD,2023-09-24 21:29:36,15.69928553,0.0003659,69.9991,219.6257,264.8849,95.193,9.4822e-06,9.28e-06,0.0,0 STARLINK-6196,1 56487U 23064AR  23267.89555926  .00000928  00000-0  94822-5 0  9993,2 56487  69.9991 219.6257 0003659 264.8849  95.1930 15.69928553 21554,6737.238,91.724,361.569,356.638,0.0
56487.0,STARLINK-6196,PAYLOAD,2023-09-24 23:01:21,15.69929352,0.0003491,69.9983,219.4467,267.8927,92.1869,-4.987e-07,-2.73e-06,0.0,0 STARLINK-6196,1 56487U 23064AR  23267.95927790 -.00000273  00000-0 -49870-6 0  9991,2 56487  69.9983 219.4467 0003491 267.8927  92.1869 15.69929352 21916,6737.236,91.724,361.453,356.749,0.0
56487.0,STARLINK-6196,PAYLOAD,2023-09-25 08:11:52,15.69928938,0.0002927,69.9993,218.3713,259.8522,100.2344,1.987e-05,2.178e-05,0.0,0 STARLINK-6196,1 56487U 23064AR  23268.34157511  .00002178  00000-0  19870-4 0  9990,2 56487  69.9993 218.3713 0002927 259.8522 100.2344 15.69928938 21620,6737.237,91.724,361.074,357.13,0.0
56487.0,STARLINK-6196,PAYLOAD,2023-09-25 14:18:50,15.69949529,0.0004207,69.998,217.6543,263.1183,96.9534,3.211e-05,3.654e-05,0.0,0 STARLINK-6196,1 56487U 23064AR  23268.59642099  .00003654  00000-0  32110-4 0  9999,2 56487  69.9980 217.6543 0004207 263.1183  96.9534 15.69949529 22018,6737.178,91.723,361.878,356.209,0.0
56487.0,STARLINK-6196,PAYLOAD,2023-09-25 21:57:37,15.69928002,0.0003466,69.9983,216.7596,264.852,95.228,1.672e-05,1.798e-05,0.0,0 STARLINK-6196,1 56487U 23064AR  23268.91502071  .00001798  00000-0  16720-4 0  9996,2 56487  69.9983 216.7596 0003466 264.8520  95.2280 15.69928002 21717,6737.24,91.724,361.44,356.77,0.0
56487.0,STARLINK-6196,PAYLOAD,2023-09-25 23:29:24,15.69895611,0.0004292,69.9995,216.5805,284.0051,76.0667,-4.4586e-05,-5.566e-05,0.0,0 STARLINK-6196,1 56487U 23064AR  23268.97875474 -.00005566  00000-0 -44586-4 0  9992,2 56487  69.9995 216.5805 0004292 284.0051  76.0667 15.69895611 22077,6737.333,91.726,362.089,356.306,0.0
56487.0,STARLINK-6196,PAYLOAD,2023-09-26 05:36:25,15.6990402,0.000358,69.9985,215.8644,270.4709,89.6076,-9.4372e-06,-1.347e-05,0.0,0 STARLINK-6196,1 56487U 23064AR  23269.23362607 -.00001347  00000-0 -94372-5 0  9993,2 56487  69.9985 215.8644 0003580 270.4709  89.6076 15.69904020 22111,6737.309,91.725,361.586,356.762,0.0
56487.0,STARLINK-6196,PAYLOAD,2023-09-26 22:25:39,15.69932618,0.0003383,69.9989,213.8929,271.834,88.2469,2.0492e-05,2.253e-05,0.0,0 STARLINK-6196,1 56487U 23064AR  23269.93448736  .00002253  00000-0  20492-4 0  9994,2 56487  69.9989 213.8929 0003383 271.8340  88.2469 15.69932618 22223,6737.227,91.724,361.371,356.813,0.0
56487.0,STARLINK-6196,PAYLOAD,2023-09-27 06:04:26,15.69912784,0.0003454,69.9995,212.9963,272.6815,87.3985,-1.4042e-05,-1.9e-05,0.0,0 STARLINK-6196,1 56487U 23064AR  23270.25308223 -.00001900  00000-0 -14042-4 0  9991,2 56487  69.9995 212.9963 0003454 272.6815  87.3985 15.69912784 22273,6737.284,91.725,361.476,356.821,0.0
56487.0,STARLINK-6196,PAYLOAD,2023-09-27 22:53:42,15.69927228,0.0003373,69.9987,211.0275,267.4714,92.6096,1.3911e-05,1.46e-05,0.0,0 STARLINK-6196,1 56487U 23064AR  23270.95396062  .00001460  00000-0  13911-4 0  9999,2 56487  69.9987 211.0275 0003373 267.4714  92.6096 15.69927228 22383,6737.242,91.724,361.38,356.835,0.0
56487.0,STARLINK-6196,PAYLOAD,2023-09-28 06:32:28,15.699083,0.0002667,69.9991,210.1329,278.6829,81.4065,2.7443e-05,3.086e-05,0.0,0 STARLINK-6196,1 56487U 23064AR  23271.27255724  .00003086  00000-0  27443-4 0  9995,2 56487  69.9991 210.1329 0002667 278.6829  81.4065 15.69908300 22432,6737.296,91.725,360.958,357.365,0.0
56487.0,STARLINK-6196,PAYLOAD,2023-09-28 21:49:59,15.69917337,0.0003442,69.9987,208.3398,267.9157,92.1645,2.9685e-05,3.357e-05,0.0,0 STARLINK-6196,1 56487U 23064AR  23271.90971284  .00003357  00000-0  29685-4 0  9992,2 56487  69.9987 208.3398 0003442 267.9157  92.1645 15.69917337 22184,6737.27,91.725,361.454,356.817,0.0
56487.0,STARLINK-6196,PAYLOAD,2023-09-29 05:28:46,15.69902562,0.0003397,69.9987,207.4441,269.8985,90.1821,1.0313e-05,1.026e-05,0.0,0 STARLINK-6196,1 56487U 23064AR  23272.22831106  .00001026  00000-0  10313-4 0  9995,2 56487  69.9987 207.4441 0003397 269.8985  90.1821 15.69902562 22584,6737.313,91.725,361.466,356.889,0.0
56487.0,STARLINK-6196,PAYLOAD,2023-09-30 04:24:56,15.69986709,0.0003222,69.9996,204.7596,261.6113,98.4718,6.067e-05,7.107e-05,0.0,0 STARLINK-6196,1 56487U 23064AR  23273.18399272  .00007107  00000-0  60670-4 0  9991,2 56487  69.9996 204.7596 0003222 261.6113  98.4718 15.69986709 22733,6737.072,91.721,361.108,356.766,0.0
56487.0,STARLINK-6196,PAYLOAD,2023-09-30 05:56:46,15.6991541,0.0003068,69.9993,204.5804,264.2346,95.85,-2.2085e-05,-2.866e-05,0.0,0 STARLINK-6196,1 56487U 23064AR  23273.24776600 -.00002866  00000-0 -22085-4 0  9999,2 56487  69.9993 204.5804 0003068 264.2346  95.8500 15.69915410 22747,6737.276,91.725,361.208,357.074,0.0
56487.0,STARLINK-6196,PAYLOAD,2023-10-01 12:31:49,15.69918057,0.0003383,69.9984,200.9954,273.8222,86.2587,-2.0119e-05,-2.631e-05,0.0,0 STARLINK-6196,1 56487U 23064AR  23274.52210468 -.00002631  00000-0 -20119-4 0  9992,2 56487  69.9984 200.9954 0003383 273.8222  86.2587 15.69918057 22594,6737.268,91.725,361.413,356.854,0.0
56487.0,STARLINK-6196,PAYLOAD,2023-10-01 21:42:20,15.69926515,0.0003735,69.9991,199.9191,276.5178,83.5592,-2.4406e-05,-3.147e-05,0.0,0 STARLINK-6196,1 56487U 23064AR  23274.90440185 -.00003147  00000-0 -24406-4 0  9991,2 56487  69.9991 199.9191 0003735 276.5178  83.5592 15.69926515 22654,6737.244,91.724,361.626,356.593,0.0
56487.0,STARLINK-6196,PAYLOAD,2023-10-02 05:21:05,15.69932015,0.0003298,70.0001,199.0229,279.1264,80.9559,-4.734e-07,-2.7e-06,0.0,0 STARLINK-6196,1 56487U 23064AR  23275.22297654 -.00000270  00000-0 -47340-6 0  9996,2 56487  70.0001 199.0229 0003298 279.1264  80.9559 15.69932015 23052,6737.229,91.724,361.315,356.872,0.0
56487.0,STARLINK-6196,PAYLOAD,2023-10-02 20:38:37,15.699207,0.0002955,70.0002,197.2339,281.8049,78.2816,4.8613e-05,5.635e-05,0.0,0 STARLINK-6196,1 56487U 23064AR  23275.86015321  .00005635  00000-0  48613-4 0  9995,2 56487  70.0002 197.2339 0002955 281.8049  78.2816 15.69920700 23150,6737.261,91.724,361.117,357.135,0.0
56487.0,STARLINK-6196,PAYLOAD,2023-10-03 04:17:23,15.69905105,0.0002975,70.0004,196.3374,275.2047,84.881,1.5937e-05,1.703e-05,0.0,0 STARLINK-6196,1 56487U 23064AR  23276.17874543  .00001703  00000-0  15937-4 0  9994,2 56487  70.0004 196.3374 0002975 275.2047  84.8810 15.69905105 23203,6737.305,91.725,361.175,357.166,0.0
56487.0,STARLINK-6196,PAYLOAD,2023-10-03 11:56:09,15.69904535,0.0003194,70.0001,195.4427,277.5962,82.4871,5.1165e-06,4.02e-06,0.0,0 STARLINK-6196,1 56487U 23064AR  23276.49733288  .00000402  00000-0  51165-5 0  9998,2 56487  70.0001 195.4427 0003194 277.5962  82.4871 15.69904535 22907,6737.307,91.725,361.324,357.02,0.0
56487.0,STARLINK-6196,PAYLOAD,2023-10-03 21:06:39,15.69925475,0.0003123,70.0004,194.3671,255.3745,104.7105,2.4275e-05,2.707e-05,0.0,0 STARLINK-6196,1 56487U 23064AR  23276.87962177  .00002707  00000-0  24275-4 0  9992,2 56487  70.0004 194.3671 0003123 255.3745 104.7105 15.69925475 22964,6737.247,91.724,361.216,357.008,0.0
56487.0,STARLINK-6196,PAYLOAD,2023-10-04 04:45:24,15.69940935,0.0003642,69.9989,193.4713,272.3683,87.7096,3.0428e-05,3.45e-05,0.0,0 STARLINK-6196,1 56487U 23064AR  23277.19819671  .00003450  00000-0  30428-4 0  9991,2 56487  69.9989 193.4713 0003642 272.3683  87.7096 15.69940935 23368,6737.203,91.723,361.522,356.614,0.0
56487.0,STARLINK-6196,PAYLOAD,2023-10-04 21:34:41,15.69921858,0.0003338,70.0,191.5005,273.9327,86.1487,9.8564e-06,9.72e-06,0.0,0 STARLINK-6196,1 56487U 23064AR  23277.89908952  .00000972  00000-0  98564-5 0  9991,2 56487  70.0000 191.5005 0003338 273.9327  86.1487 15.69921858 23126,6737.258,91.724,361.371,356.874,0.0
